{
    "links": {
        "self": "http://www.neowsapp.com/rest/v1/neo/3892692?api_key=iIulBulltgU6a56xZRHN4H3l9WmuAYTsLGpBGhQ2"
    },
    "id": "3892692",
    "neo_reference_id": "3892692",
    "name": "(2019 VH3)",
    "designation": "2019 VH3",
    "nasa_jpl_url": "http://ssd.jpl.nasa.gov/sbdb.cgi?sstr=3892692",
    "absolute_magnitude_h": 24.0,
    "estimated_diameter": {
        "kilometers": {
            "estimated_diameter_min": 0.0421264611,
            "estimated_diameter_max": 0.0941976306
        },
        "meters": {
            "estimated_diameter_min": 42.1264610556,
            "estimated_diameter_max": 94.1976305719
        },
        "miles": {
            "estimated_diameter_min": 0.0261761612,
            "estimated_diameter_max": 0.0585316759
        },
        "feet": {
            "estimated_diameter_min": 138.2101784897,
            "estimated_diameter_max": 309.0473542854
        }
    },
    "is_potentially_hazardous_asteroid": false,
    "close_approach_data": [
        {
            "close_approach_date": "1901-06-15",
            "close_approach_date_full": "1901-Jun-15 06:17",
            "epoch_date_close_approach": -2163174180000,
            "relative_velocity": {
                "kilometers_per_second": "18.2651773895",
                "kilometers_per_hour": "65754.6386020585",
                "miles_per_hour": "40857.3753024846"
            },
            "miss_distance": {
                "astronomical": "0.138702364",
                "lunar": "53.955219596",
                "kilometers": "20749578.21836468",
                "miles": "12893190.039725384"
            },
            "orbiting_body": "Earth"
        },
        {
            "close_approach_date": "1904-11-15",
            "close_approach_date_full": "1904-Nov-15 00:27",
            "epoch_date_close_approach": -2055281580000,
            "relative_velocity": {
                "kilometers_per_second": "25.7889014243",
                "kilometers_per_hour": "92840.045127592",
                "miles_per_hour": "57687.1935960862"
            },
            "miss_distance": {
                "astronomical": "0.3759657577",
                "lunar": "146.2506797453",
                "kilometers": "56243676.544856099",
                "miles": "34948200.0354042062"
            },
            "orbiting_body": "Earth"
        },
        {
            "close_approach_date": "2019-10-19",
            "close_approach_date_full": "2019-Oct-19 08:28",
            "epoch_date_close_approach": 1571473680000,
            "relative_velocity": {
                "kilometers_per_second": "13.2304961849",
                "kilometers_per_hour": "47629.7862657959",
                "miles_per_hour": "29595.2969160997"
            },
            "miss_distance": {
                "astronomical": "0.0505980532",
                "lunar": "19.6826426948",
                "kilometers": "7569360.984866684",
                "miles": "4703382.8172368792"
            },
            "orbiting_body": "Earth"
        }
    ],
    "orbital_data": {
        "orbit_id": "3",
        "orbit_determination_date": "2020-10-11 07:08:15",
        "first_observation_date": "2019-11-02",
        "last_observation_date": "2019-11-24",
        "data_arc_in_days": 22,
        "observations_used": 21,
        "orbit_uncertainty": "8",
        "minimum_orbit_intersection": ".0189657",
        "jupiter_tisserand_invariant": "3.415",
        "epoch_osculation": "2458792.5",
        "eccentricity": ".6165266609639943",
        "semi_major_axis": "2.166573687540642",
        "inclination": "4.522786319297706",
        "ascending_node_longitude": "44.28406934948868",
        "orbital_period": "1164.81947608829",
        "perihelion_distance": ".8308232462287616",
        "perihelion_argument": "290.326221946187",
        "aphelion_distance": "3.502324128852522",
        "perihelion_time": "2458739.760434200409",
        "mean_anomaly": "16.29973062573832",
        "mean_motion": ".309060766402152",
        "equinox": "J2000",
        "orbit_class": {
            "orbit_class_type": "APO",
            "orbit_class_description": "Near-Earth asteroid orbits which cross the Earth’s orbit similar to that of 1862 Apollo",
            "orbit_class_range": "a (semi-major axis) > 1.0 AU; q (perihelion) < 1.017 AU"
        }
    },
    "is_sentry_object": false
}